OBJECT_NAME,OBJECT_ID,EPOCH,MEAN_MOTION,ECCENTRICITY,INCLINATION,RA_OF_ASC_NODE,ARG_OF_PERICENTER,MEAN_ANOMALY,EPHEMERIS_TYPE,CLASSIFICATION_TYPE,NORAD_CAT_ID,ELEMENT_SET_NO,REV_AT_EPOCH,BSTAR,MEAN_MOTION_DOT,MEAN_MOTION_DDOT
HODOYOSHI-4,2014-033B,2026-06-14T19:33:48.615264,14.88127653,.0022588,97.5449,350.7528,316.8435,43.1011,0,U,40011,999,64845,.2305E-3,.2079E-4,0
DEIMOS-2,2014-033D,2026-06-14T21:43:58.829664,14.93719162,.0001628,97.5838,40.4753,47.9998,312.1361,0,U,40013,999,63738,.1023E-3,.1028E-4,0
HODOYOSHI-3,2014-033F,2026-06-14T10:09:15.906528,14.85383551,.00329614,97.6414,328.5749,6.4284,353.7348,0,U,40015,999,64721,.11563082E-3,.952E-5,0
SPOT 7,2014-034A,2026-06-14T20:28:14.899872,14.60956129,.0001194,98.0636,228.4045,89.7510,270.3828,0,U,40053,999,63679,.71793E-4,.306E-5,0
SKYSAT-B,2014-037D,2026-06-14T20:07:56.087904,14.88022449,.000427,98.3838,124.6699,291.9299,68.1462,0,U,40072,999,64561,.13981E-3,.1222E-4,0
WORLDVIEW-3 (WV-3),2014-048A,2026-06-14T19:25:01.939872,14.85018615,.0001177,97.8566,240.6747,29.2497,330.8784,0,U,40115,999,64155,.95252E-4,.759E-5,0
GAOFEN-2,2014-049A,2026-06-14T21:05:49.677216,14.80897460,.000602,98.0116,230.0882,235.8027,124.2615,0,U,40118,999,63889,.12469E-3,.91E-5,0
YAOGAN-21,2014-053A,2026-06-14T20:50:02.891328,15.26342946,.0009947,97.1475,206.2026,100.4667,259.7693,0,U,40143,999,65460,.25541E-3,.6575E-4,0
YAOGAN-22,2014-063A,2026-06-14T08:55:23.462112,13.15531008,.00062771,100.7720,316.5983,191.6270,168.4697,0,U,40275,999,55944,.41161116E-4,-.31E-6,0
ASNARO,2014-070A,2026-06-14T20:30:11.824992,15.19405314,.0005385,97.3461,242.0309,171.5630,188.5697,0,U,40298,999,64365,.3453E-3,.7248E-4,0
YAOGAN-24,2014-072A,2026-06-14T20:17:14.908416,14.76221276,.001253,98.1479,303.1635,272.1407,87.8368,0,U,40310,999,62337,.11985E-3,.777E-5,0
CBERS 4,2014-079A,2026-06-14T21:02:05.445888,14.35507850,.0001886,98.3539,222.7803,66.1502,293.9882,0,U,40336,999,60362,-.36744E-5,-.53E-6,0
YAOGAN-26,2014-088A,2026-06-14T20:52:55.288704,15.47272611,.0006172,97.0634,166.1330,72.7592,287.4334,0,U,40362,999,63734,.50891E-3,.25914E-3,0
SMAP,2015-003A,2026-06-14T19:45:47.958336,14.63364761,.0001304,98.1276,172.9515,95.7122,264.4229,0,U,40376,999,60727,.81714E-4,.375E-5,0
KOMPSAT-3A,2015-014A,2026-06-14T20:37:18.959808,15.53899299,.0056283,97.6881,157.0515,182.9468,177.1462,0,U,40536,999,62145,.34098E-3,.23461E-3,0
SENTINEL-2A,2015-028A,2026-06-14T20:05:22.378848,14.30814114,.0001095,98.5691,240.7219,89.6088,270.5220,0,U,40697,999,57339,.70101E-5,-.25E-6,0
GAOFEN-8,2015-030A,2026-06-14T19:44:02.796576,15.45880927,.0008453,97.6897,359.0515,195.4402,164.6590,0,U,40701,999,61108,.43378E-3,.21034E-3,0
CARBONITE 1 (CBNT-1),2015-032D,2026-06-14T19:43:33.012768,14.83580790,.0013326,97.6499,343.9879,306.7296,53.2694,0,U,40718,999,58899,.16662E-3,.1324E-4,0
YAOGAN-27,2015-040A,2026-06-14T21:35:57.978240,13.16068499,.0007626,100.1145,152.3816,216.3344,143.7253,0,U,40878,999,51736,-.12753E-2,-.527E-5,0
GAOFEN-9 01,2015-047A,2026-06-14T20:03:33.829344,14.82879676,.0028244,97.6275,201.6374,145.2527,215.0539,0,U,40894,999,57984,.11188E-3,.862E-5,0
YAOGAN-28,2015-064A,2026-06-14T19:59:54.628224,15.27395081,.0010405,97.3070,304.1425,191.6499,168.4501,0,U,41026,999,59032,.21856E-3,.5797E-4,0
YAOGAN-29,2015-069A,2026-06-14T21:12:48.698208,14.83081718,.0002695,98.0029,194.5128,58.2676,301.8799,0,U,41038,999,57028,.12856E-5,-.44E-6,0
KENT RIDGE 1,2015-077B,2026-06-14T16:11:56.916384,15.23119109,.000824,14.9792,284.6775,203.0027,156.9926,0,U,41167,999,58071,.13031E-3,.3934E-4,0
GAOFEN-4,2015-083A,2026-06-14T20:27:08.807328,1.00269942,.0004351,0.3502,83.8361,114.9643,116.8389,0,U,41194,999,3850,0,-.329E-5,0
JASON-3,2016-002A,2026-06-14T19:52:08.376672,12.87628026,.0008544,66.0401,130.7951,272.9042,87.0999,0,U,41240,999,48694,-.23537E-4,-.68E-6,0
SENTINEL-3A,2016-011A,2026-06-14T19:58:17.144832,14.26739372,.0001391,98.6249,233.2495,102.3380,257.7956,0,U,41335,999,53772,.58471E-4,.98E-6,0
ZIYUAN 3-02 (ZY 3-02),2016-033A,2026-06-14T21:18:27.533952,15.21462495,.0011238,97.3841,241.7064,298.9609,61.0500,0,U,41556,999,55763,.23591E-3,.5241E-4,0
CARTOSAT-2C,2016-040A,2026-06-14T21:17:13.076160,15.19303316,.0010418,97.4489,225.8966,138.3225,221.8805,0,U,41599,999,55336,.2277E-3,.4744E-4,0
SKYSAT-C1,2016-040C,2026-06-14T19:21:09.619776,15.36266062,.0003675,96.9561,197.6552,62.8536,297.3083,0,U,41601,999,55750,.23876E-3,.8368E-4,0
LAPAN-A3,2016-040E,2026-06-14T20:11:40.873920,15.33091095,.0011175,97.1485,162.0642,33.6059,326.5890,0,U,41603,999,55445,.10136E-3,.317E-4,0
GAOFEN-3,2016-049A,2026-06-14T20:43:59.204352,14.42214808,.0001347,98.4006,173.6846,100.8071,259.3270,0,U,41727,999,51831,-.1873E-4,-.105E-5,0
