HODOYOSHI-4             
1 40011U 14033B   26165.81514601  .00002079  00000+0  23050-3 0  9993
2 40011  97.5449 350.7528 0022588 316.8435  43.1011 14.88127653648453
DEIMOS-2                
1 40013U 14033D   26165.90554201  .00001028  00000+0  10230-3 0  9994
2 40013  97.5838  40.4753 0001628  47.9998 312.1361 14.93719162637383
HODOYOSHI-3             
1 40015U 14033F   26165.42310077  .00000952  00000+0  11563-3 0  9999
2 40015  97.6414 328.5749 0032961   6.4284 353.7348 14.85383551647212
SPOT 7                  
1 40053U 14034A   26165.85295023  .00000306  00000+0  71793-4 0  9997
2 40053  98.0636 228.4045 0001194  89.7510 270.3828 14.60956129636790
SKYSAT-B                
1 40072U 14037D   26165.83884361  .00001222  00000+0  13981-3 0  9990
2 40072  98.3838 124.6699 0004270 291.9299  68.1462 14.88022449645616
WORLDVIEW-3 (WV-3)      
1 40115U 14048A   26165.80905023  .00000759  00000+0  95252-4 0  9992
2 40115  97.8566 240.6747 0001177  29.2497 330.8784 14.85018615641556
GAOFEN-2                
1 40118U 14049A   26165.87904719  .00000910  00000+0  12469-3 0  9991
2 40118  98.0116 230.0882 0006020 235.8027 124.2615 14.80897460638891
YAOGAN-21               
1 40143U 14053A   26165.86808902  .00006575  00000+0  25541-3 0  9998
2 40143  97.1475 206.2026 0009947 100.4667 259.7693 15.26342946654602
YAOGAN-22               
1 40275U 14063A   26165.37179933 -.00000031  00000+0  41161-4 0  9995
2 40275 100.7720 316.5983 0006277 191.6270 168.4697 13.15531008559445
ASNARO                  
1 40298U 14070A   26165.85430353  .00007248  00000+0  34530-3 0  9994
2 40298  97.3461 242.0309 0005385 171.5630 188.5697 15.19405314643650
YAOGAN-24               
1 40310U 14072A   26165.84531144  .00000777  00000+0  11985-3 0  9999
2 40310  98.1479 303.1635 0012530 272.1407  87.8368 14.76221276623372
CBERS 4                 
1 40336U 14079A   26165.87645192 -.00000053  00000+0 -36744-5 0  9997
2 40336  98.3539 222.7803 0001886  66.1502 293.9882 14.35507850603628
YAOGAN-26               
1 40362U 14088A   26165.87008436  .00025914  00000+0  50891-3 0  9998
2 40362  97.0634 166.1330 0006172  72.7592 287.4334 15.47272611637344
SMAP                    
1 40376U 15003A   26165.82347174  .00000375  00000+0  81714-4 0  9994
2 40376  98.1276 172.9515 0001304  95.7122 264.4229 14.63364761607271
KOMPSAT-3A              
1 40536U 15014A   26165.85924722  .00023461  00000+0  34098-3 0  9990
2 40536  97.6881 157.0515 0056283 182.9468 177.1462 15.53899299621451
SENTINEL-2A             
1 40697U 15028A   26165.83706457 -.00000025  00000+0  70101-5 0  9993
2 40697  98.5691 240.7219 0001095  89.6088 270.5220 14.30814114573397
GAOFEN-8                
1 40701U 15030A   26165.82225459  .00021034  00000+0  43378-3 0  9995
2 40701  97.6897 359.0515 0008453 195.4402 164.6590 15.45880927611089
CARBONITE 1 (CBNT-1)    
1 40718U 15032D   26165.82190987  .00001324  00000+0  16662-3 0  9998
2 40718  97.6499 343.9879 0013326 306.7296  53.2694 14.83580790588990
YAOGAN-27               
1 40878U 15040A   26165.89997660 -.00000527  00000+0 -12753-2 0  9996
2 40878 100.1145 152.3816 0007626 216.3344 143.7253 13.16068499517365
GAOFEN-9 01             
1 40894U 15047A   26165.83580821  .00000862  00000+0  11188-3 0  9994
2 40894  97.6275 201.6374 0028244 145.2527 215.0539 14.82879676579848
YAOGAN-28               
1 41026U 15064A   26165.83327116  .00005797  00000+0  21856-3 0  9992
2 41026  97.3070 304.1425 0010405 191.6499 168.4501 15.27395081590324
YAOGAN-29               
1 41038U 15069A   26165.88389697 -.00000044  00000+0  12856-5 0  9990
2 41038  98.0029 194.5128 0002695  58.2676 301.8799 14.83081718570282
KENT RIDGE 1            
1 41167U 15077B   26165.67496431  .00003934  00000+0  13031-3 0  9998
2 41167  14.9792 284.6775 0008240 203.0027 156.9926 15.23119109580711
GAOFEN-4                
1 41194U 15083A   26165.85218527 -.00000329  00000+0  00000+0 0  9997
2 41194   0.3502  83.8361 0004351 114.9643 116.8389  1.00269942 38506
JASON-3                 
1 41240U 16002A   26165.82787473 -.00000068  00000+0 -23537-4 0  9995
2 41240  66.0401 130.7951 0008544 272.9042  87.0999 12.87628026486948
SENTINEL-3A             
1 41335U 16011A   26165.83214288  .00000098  00000+0  58471-4 0  9996
2 41335  98.6249 233.2495 0001391 102.3380 257.7956 14.26739372537724
ZIYUAN 3-02 (ZY 3-02)   
1 41556U 16033A   26165.88781868  .00005241  00000+0  23591-3 0  9992
2 41556  97.3841 241.7064 0011238 298.9609  61.0500 15.21462495557634
CARTOSAT-2C             
1 41599U 16040A   26165.88695690  .00004744  00000+0  22770-3 0  9999
2 41599  97.4489 225.8966 0010418 138.3225 221.8805 15.19303316553367
SKYSAT-C1               
1 41601U 16040C   26165.80636134  .00008368  00000+0  23876-3 0  9997
2 41601  96.9561 197.6552 0003675  62.8536 297.3083 15.36266062557507
LAPAN-A3                
1 41603U 16040E   26165.84144530  .00003170  00000+0  10136-3 0  9998
2 41603  97.1485 162.0642 0011175  33.6059 326.5890 15.33091095554454
GAOFEN-3                
1 41727U 16049A   26165.86387968 -.00000105  00000+0 -18730-4 0  9996
2 41727  98.4006 173.6846 0001347 100.8071 259.3270 14.42214808518317
